[{"OBJECT_NAME":"CBERS 4","OBJECT_ID":"2014-079A","EPOCH":"2026-03-06T20:31:34.785408","MEAN_MOTION":14.35411704,"ECCENTRICITY":7.08e-5,"INCLINATION":98.3486,"RA_OF_ASC_NODE":125.9583,"ARG_OF_PERICENTER":58.7342,"MEAN_ANOMALY":301.3914,"EPHEMERIS_TYPE":0,"CLASSIFICATION_TYPE":"U","NORAD_CAT_ID":40336,"ELEMENT_SET_NO":999,"REV_AT_EPOCH":58927,"BSTAR":2.39e-5,"MEAN_MOTION_DOT":2.6e-7,"MEAN_MOTION_DDOT":0},{"OBJECT_NAME":"SMAP","OBJECT_ID":"2015-003A","EPOCH":"2026-03-06T18:56:34.479744","MEAN_MOTION":14.6333485,"ECCENTRICITY":0.0001321,"INCLINATION":98.1312,"RA_OF_ASC_NODE":74.3184,"ARG_OF_PERICENTER":112.5858,"MEAN_ANOMALY":247.5484,"EPHEMERIS_TYPE":0,"CLASSIFICATION_TYPE":"U","NORAD_CAT_ID":40376,"ELEMENT_SET_NO":999,"REV_AT_EPOCH":59264,"BSTAR":0.00016182,"MEAN_MOTION_DOT":7.89e-6,"MEAN_MOTION_DDOT":0},{"OBJECT_NAME":"GONETS-M 11","OBJECT_ID":"2015-020A","EPOCH":"2026-03-06T20:33:28.541376","MEAN_MOTION":12.42872922,"ECCENTRICITY":0.0015313,"INCLINATION":82.4804,"RA_OF_ASC_NODE":94.7615,"ARG_OF_PERICENTER":221.9455,"MEAN_ANOMALY":138.0453,"EPHEMERIS_TYPE":0,"CLASSIFICATION_TYPE":"U","NORAD_CAT_ID":40552,"ELEMENT_SET_NO":999,"REV_AT_EPOCH":49602,"BSTAR":0.00090672,"MEAN_MOTION_DOT":1.35e-6,"MEAN_MOTION_DDOT":0},{"OBJECT_NAME":"GONETS-M 12","OBJECT_ID":"2015-020B","EPOCH":"2026-03-06T19:57:04.379616","MEAN_MOTION":12.42888688,"ECCENTRICITY":0.0014587,"INCLINATION":82.484,"RA_OF_ASC_NODE":95.8746,"ARG_OF_PERICENTER":205.6922,"MEAN_ANOMALY":154.3435,"EPHEMERIS_TYPE":0,"CLASSIFICATION_TYPE":"U","NORAD_CAT_ID":40553,"ELEMENT_SET_NO":999,"REV_AT_EPOCH":49601,"BSTAR":0.00090862,"MEAN_MOTION_DOT":1.36e-6,"MEAN_MOTION_DDOT":0},{"OBJECT_NAME":"GONETS-M 13","OBJECT_ID":"2015-020C","EPOCH":"2026-03-06T19:16:24.218112","MEAN_MOTION":12.42867384,"ECCENTRICITY":0.0013541,"INCLINATION":82.48,"RA_OF_ASC_NODE":94.5367,"ARG_OF_PERICENTER":189.7122,"MEAN_ANOMALY":170.3697,"EPHEMERIS_TYPE":0,"CLASSIFICATION_TYPE":"U","NORAD_CAT_ID":40554,"ELEMENT_SET_NO":999,"REV_AT_EPOCH":49598,"BSTAR":0.0007461,"MEAN_MOTION_DOT":1.13e-6,"MEAN_MOTION_DDOT":0},{"OBJECT_NAME":"DMC3-FM1","OBJECT_ID":"2015-032A","EPOCH":"2026-03-06T21:35:16.273824","MEAN_MOTION":14.85606623,"ECCENTRICITY":0.0006615,"INCLINATION":97.6614,"RA_OF_ASC_NODE":295.0002,"ARG_OF_PERICENTER":40.7457,"MEAN_ANOMALY":319.4252,"EPHEMERIS_TYPE":0,"CLASSIFICATION_TYPE":"U","NORAD_CAT_ID":40715,"ELEMENT_SET_NO":999,"REV_AT_EPOCH":57472,"BSTAR":7.6394e-5,"MEAN_MOTION_DOT":6.1e-6,"MEAN_MOTION_DDOT":0},{"OBJECT_NAME":"DMC3-FM2","OBJECT_ID":"2015-032B","EPOCH":"2026-03-06T20:30:27.224928","MEAN_MOTION":14.85611823,"ECCENTRICITY":0.0007201,"INCLINATION":97.6669,"RA_OF_ASC_NODE":296.4602,"ARG_OF_PERICENTER":45.3102,"MEAN_ANOMALY":314.8699,"EPHEMERIS_TYPE":0,"CLASSIFICATION_TYPE":"U","NORAD_CAT_ID":40716,"ELEMENT_SET_NO":999,"REV_AT_EPOCH":57471,"BSTAR":0.00014726,"MEAN_MOTION_DOT":1.223e-5,"MEAN_MOTION_DDOT":0},{"OBJECT_NAME":"DMC3-FM3","OBJECT_ID":"2015-032C","EPOCH":"2026-03-06T19:26:41.273952","MEAN_MOTION":14.85612929,"ECCENTRICITY":0.0006519,"INCLINATION":97.6725,"RA_OF_ASC_NODE":298.1043,"ARG_OF_PERICENTER":46.6316,"MEAN_ANOMALY":313.5441,"EPHEMERIS_TYPE":0,"CLASSIFICATION_TYPE":"U","NORAD_CAT_ID":40717,"ELEMENT_SET_NO":999,"REV_AT_EPOCH":57471,"BSTAR":0.00017955,"MEAN_MOTION_DOT":1.503e-5,"MEAN_MOTION_DDOT":0},{"OBJECT_NAME":"CARBONITE 1 (CBNT-1)","OBJECT_ID":"2015-032D","EPOCH":"2026-03-06T20:31:59.098368","MEAN_MOTION":14.83205737,"ECCENTRICITY":0.0013176,"INCLINATION":97.6459,"RA_OF_ASC_NODE":248.2452,"ARG_OF_PERICENTER":270.5384,"MEAN_ANOMALY":89.432,"EPHEMERIS_TYPE":0,"CLASSIFICATION_TYPE":"U","NORAD_CAT_ID":40718,"ELEMENT_SET_NO":999,"REV_AT_EPOCH":57417,"BSTAR":0.00063665,"MEAN_MOTION_DOT":5.158e-5,"MEAN_MOTION_DDOT":0},{"OBJECT_NAME":"DEORBITSAIL","OBJECT_ID":"2015-032E","EPOCH":"2026-03-06T20:07:13.662912","MEAN_MOTION":15.02219008,"ECCENTRICITY":0.0011912,"INCLINATION":97.5982,"RA_OF_ASC_NODE":284.6466,"ARG_OF_PERICENTER":219.5793,"MEAN_ANOMALY":140.4563,"EPHEMERIS_TYPE":0,"CLASSIFICATION_TYPE":"U","NORAD_CAT_ID":40719,"ELEMENT_SET_NO":999,"REV_AT_EPOCH":57587,"BSTAR":0.00088812,"MEAN_MOTION_DOT":0.00011675,"MEAN_MOTION_DDOT":0},{"OBJECT_NAME":"2015-049G","OBJECT_ID":"2015-049G","EPOCH":"2026-03-06T20:18:53.775936","MEAN_MOTION":15.58912349,"ECCENTRICITY":0.0004825,"INCLINATION":97.4718,"RA_OF_ASC_NODE":104.2784,"ARG_OF_PERICENTER":216.664,"MEAN_ANOMALY":143.4287,"EPHEMERIS_TYPE":0,"CLASSIFICATION_TYPE":"U","NORAD_CAT_ID":40905,"ELEMENT_SET_NO":999,"REV_AT_EPOCH":58046,"BSTAR":0.00052239,"MEAN_MOTION_DOT":0.00040539,"MEAN_MOTION_DDOT":0},{"OBJECT_NAME":"LILACSAT-2","OBJECT_ID":"2015-049K","EPOCH":"2026-03-06T20:44:50.836128","MEAN_MOTION":15.47896322,"ECCENTRICITY":0.0005602,"INCLINATION":97.481,"RA_OF_ASC_NODE":98.9906,"ARG_OF_PERICENTER":259.483,"MEAN_ANOMALY":100.5789,"EPHEMERIS_TYPE":0,"CLASSIFICATION_TYPE":"U","NORAD_CAT_ID":40908,"ELEMENT_SET_NO":999,"REV_AT_EPOCH":57990,"BSTAR":0.00041798,"MEAN_MOTION_DOT":0.00021712,"MEAN_MOTION_DDOT":0},{"OBJECT_NAME":"COSMOS 2507 (RODNIK-S 13)","OBJECT_ID":"2015-050A","EPOCH":"2026-03-06T20:14:03.522048","MEAN_MOTION":12.42923006,"ECCENTRICITY":0.0009615,"INCLINATION":82.4949,"RA_OF_ASC_NODE":143.3938,"ARG_OF_PERICENTER":204.9629,"MEAN_ANOMALY":155.0987,"EPHEMERIS_TYPE":0,"CLASSIFICATION_TYPE":"U","NORAD_CAT_ID":40920,"ELEMENT_SET_NO":999,"REV_AT_EPOCH":47414,"BSTAR":1.6727e-6,"MEAN_MOTION_DOT":1.0e-7,"MEAN_MOTION_DDOT":0},{"OBJECT_NAME":"COSMOS 2508 (RODNIK-S 14)","OBJECT_ID":"2015-050B","EPOCH":"2026-03-06T21:03:38.680992","MEAN_MOTION":12.42910025,"ECCENTRICITY":0.0013201,"INCLINATION":82.4899,"RA_OF_ASC_NODE":141.9171,"ARG_OF_PERICENTER":242.6907,"MEAN_ANOMALY":117.2829,"EPHEMERIS_TYPE":0,"CLASSIFICATION_TYPE":"U","NORAD_CAT_ID":40921,"ELEMENT_SET_NO":999,"REV_AT_EPOCH":47413,"BSTAR":9.6959e-5,"MEAN_MOTION_DOT":2.3e-7,"MEAN_MOTION_DDOT":0},{"OBJECT_NAME":"COSMOS 2509 (RODNIK-S 15)","OBJECT_ID":"2015-050C","EPOCH":"2026-03-06T19:33:40.425408","MEAN_MOTION":12.42929978,"ECCENTRICITY":0.0013316,"INCLINATION":82.4905,"RA_OF_ASC_NODE":142.0482,"ARG_OF_PERICENTER":262.7665,"MEAN_ANOMALY":97.1901,"EPHEMERIS_TYPE":0,"CLASSIFICATION_TYPE":"U","NORAD_CAT_ID":40922,"ELEMENT_SET_NO":999,"REV_AT_EPOCH":47416,"BSTAR":-0.00055554,"MEAN_MOTION_DOT":-6.7e-7,"MEAN_MOTION_DDOT":0},{"OBJECT_NAME":"LQSAT","OBJECT_ID":"2015-057A","EPOCH":"2026-03-06T19:42:15.621696","MEAN_MOTION":14.76630964,"ECCENTRICITY":0.001559,"INCLINATION":97.6659,"RA_OF_ASC_NODE":64.2923,"ARG_OF_PERICENTER":242.867,"MEAN_ANOMALY":117.0951,"EPHEMERIS_TYPE":0,"CLASSIFICATION_TYPE":"U","NORAD_CAT_ID":40958,"ELEMENT_SET_NO":999,"REV_AT_EPOCH":56020,"BSTAR":0.00018282,"MEAN_MOTION_DOT":1.231e-5,"MEAN_MOTION_DDOT":0},{"OBJECT_NAME":"LINGQIAO VIDEO A","OBJECT_ID":"2015-057B","EPOCH":"2026-03-06T21:12:27.046368","MEAN_MOTION":14.77232953,"ECCENTRICITY":0.0015351,"INCLINATION":97.6606,"RA_OF_ASC_NODE":65.7573,"ARG_OF_PERICENTER":240.0698,"MEAN_ANOMALY":119.8989,"EPHEMERIS_TYPE":0,"CLASSIFICATION_TYPE":"U","NORAD_CAT_ID":40959,"ELEMENT_SET_NO":999,"REV_AT_EPOCH":56030,"BSTAR":0.00013394,"MEAN_MOTION_DOT":9.02e-6,"MEAN_MOTION_DDOT":0}]
