CBERS 4                 
1 40336U 14079A   26065.85526372  .00000026  00000+0  23900-4 0  9999
2 40336  98.3486 125.9583 0000708  58.7342 301.3914 14.35411704589275
SMAP                    
1 40376U 15003A   26065.78928796  .00000789  00000+0  16182-3 0  9998
2 40376  98.1312  74.3184 0001321 112.5858 247.5484 14.63334850592647
GONETS-M 11             
1 40552U 15020A   26065.85658034  .00000135  00000+0  90672-3 0  9997
2 40552  82.4804  94.7615 0015313 221.9455 138.0453 12.42872922496021
GONETS-M 12             
1 40553U 15020B   26065.83130069  .00000136  00000+0  90862-3 0  9991
2 40553  82.4840  95.8746 0014587 205.6922 154.3435 12.42888688496015
GONETS-M 13             
1 40554U 15020C   26065.80305808  .00000113  00000+0  74610-3 0  9992
2 40554  82.4800  94.5367 0013541 189.7122 170.3697 12.42867384495983
DMC3-FM1                
1 40715U 15032A   26065.89949391  .00000610  00000+0  76394-4 0  9998
2 40715  97.6614 295.0002 0006615  40.7457 319.4252 14.85606623574727
DMC3-FM2                
1 40716U 15032B   26065.85448177  .00001223  00000+0  14726-3 0  9992
2 40716  97.6669 296.4602 0007201  45.3102 314.8699 14.85611823574710
DMC3-FM3                
1 40717U 15032C   26065.81019993  .00001503  00000+0  17955-3 0  9997
2 40717  97.6725 298.1043 0006519  46.6316 313.5441 14.85612929574713
CARBONITE 1 (CBNT-1)    
1 40718U 15032D   26065.85554512  .00005158  00000+0  63665-3 0  9992
2 40718  97.6459 248.2452 0013176 270.5384  89.4320 14.83205737574176
DEORBITSAIL             
1 40719U 15032E   26065.83835258  .00011675  00000+0  88812-3 0  9992
2 40719  97.5982 284.6466 0011912 219.5793 140.4563 15.02219008575872
2015-049G               
1 40905U 15049G   26065.84645574  .00040539  00000+0  52239-3 0  9993
2 40905  97.4718 104.2784 0004825 216.6640 143.4287 15.58912349580465
LILACSAT-2              
1 40908U 15049K   26065.86447727  .00021712  00000+0  41798-3 0  9998
2 40908  97.4810  98.9906 0005602 259.4830 100.5789 15.47896322579904
COSMOS 2507 (RODNIK-S *)
1 40920U 15050A   26065.84309632  .00000010  00000+0  16727-5 0  9998
2 40920  82.4949 143.3938 0009615 204.9629 155.0987 12.42923006474141
COSMOS 2508 (RODNIK-S *)
1 40921U 15050B   26065.87753103  .00000023  00000+0  96959-4 0  9996
2 40921  82.4899 141.9171 0013201 242.6907 117.2829 12.42910025474134
COSMOS 2509 (RODNIK-S *)
1 40922U 15050C   26065.81505122 -.00000067  00000+0 -55554-3 0  9992
2 40922  82.4905 142.0482 0013316 262.7665  97.1901 12.42929978474168
LQSAT                   
1 40958U 15057A   26065.82101414  .00001231  00000+0  18282-3 0  9994
2 40958  97.6659  64.2923 0015590 242.8670 117.0951 14.76630964560208
LINGQIAO VIDEO A        
1 40959U 15057B   26065.88364637  .00000902  00000+0  13394-3 0  9992
2 40959  97.6606  65.7573 0015351 240.0698 119.8989 14.77232953560302
